STARLINK-3298           
1 50165U 21125K   26068.82325164 -.00000060  00000+0  14303-4 0  9992
2 50165  53.2151 258.5234 0001341  86.7650 273.3496 15.08834528236522
PRSC-S1                 
1 65055U 25164A   26068.60758212  .00007316  00000+0  46631-3 0  9991
2 65055  41.1290 129.3637 0004466 348.3012  11.7698 15.08919510 33403
