[{"OBJECT_NAME":"STARLINK-3298","OBJECT_ID":"2021-125K","EPOCH":"2026-03-09T19:45:28.942560","MEAN_MOTION":15.08834528,"ECCENTRICITY":0.00013415,"INCLINATION":53.2151,"RA_OF_ASC_NODE":258.5234,"ARG_OF_PERICENTER":86.765,"MEAN_ANOMALY":273.3496,"EPHEMERIS_TYPE":0,"CLASSIFICATION_TYPE":"U","NORAD_CAT_ID":50165,"ELEMENT_SET_NO":999,"REV_AT_EPOCH":23652,"BSTAR":1.4302685e-5,"MEAN_MOTION_DOT":-6.0e-7,"MEAN_MOTION_DDOT":0},{"OBJECT_NAME":"PRSC-S1","OBJECT_ID":"2025-164A","EPOCH":"2026-03-09T14:34:55.095168","MEAN_MOTION":15.0891951,"ECCENTRICITY":0.0004466,"INCLINATION":41.129,"RA_OF_ASC_NODE":129.3637,"ARG_OF_PERICENTER":348.3012,"MEAN_ANOMALY":11.7698,"EPHEMERIS_TYPE":0,"CLASSIFICATION_TYPE":"U","NORAD_CAT_ID":65055,"ELEMENT_SET_NO":999,"REV_AT_EPOCH":3340,"BSTAR":0.00046631,"MEAN_MOTION_DOT":7.316e-5,"MEAN_MOTION_DDOT":0}]
